SARSAT 7 (NOAA 15)      
1 25338U 98030A   23053.38876992  .00000242  00000+0  11930-3 0  9990
2 25338  98.6203  84.3361 0009316 290.5254  69.4926 14.26249160288898
GPS BIIR-08             
1 27663U 03005A   23052.81754175  .00000018  00000+0  00000+0 0  9999
2 27663  55.3533 263.1486 0132280  43.5405 139.8023  2.00577229147010
GPS BIIR-11             
1 28190U 04009A   23052.82332458 -.00000071  00000+0  00000+0 0  9997
2 28190  55.8374 324.1852 0089394 129.3878 216.6196  2.00571601138645
GPS BIIR-13             
1 28474U 04045A   23052.30531612 -.00000092  00000+0  00000+0 0  9991
2 28474  55.4187  13.4780 0202059 283.8375 258.6077  2.00562393134120
SARSAT 10 (NOAA 18)     
1 28654U 05018A   23053.41664613  .00000321  00000+0  19659-3 0  9991
2 28654  98.9207 128.3250 0013842 348.6923  11.3936 14.12868552915365
GPS BIIR-14M            
1 28874U 05038A   23052.55042615 -.00000066  00000+0  00000+0 0  9996
2 28874  55.8943 321.6398 0138956 278.5201 257.7449  2.00558491127534
METEOSAT-9 (MSG-2)      
1 28912U 05049B   23052.65886222  .00000114  00000+0  00000+0 0  9995
2 28912   6.5836  64.6126 0001687 194.7625 174.8482  1.00274789 62890
GOES 13                 
1 29155U 06018A   23052.71021421  .00000025  00000+0  00000+0 0  9992
2 29155   1.2277  92.4272 0003712 175.6338 200.1471  1.00271986 31233
GPS BIIR-16M            
1 29601U 06052A   23051.87458983  .00000028  00000+0  00000+0 0  9992
2 29601  55.3687 262.1348 0087011  76.3729 284.6363  2.00565504119090
GPS BIIR-17M            
1 32260U 07047A   23053.17331727  .00000004  00000+0  00000+0 0  9997
2 32260  53.3898 130.1899 0145345  67.3049 294.2811  2.00562270112547
GPS BIIR-18M            
1 32384U 07062A   23052.22938846 -.00000065  00000+0  00000+0 0  9999
2 32384  56.0212 322.4466 0020570 141.8543  25.9270  2.00574989111209
SARSAT 12 (NOAA 19)     
1 33591U 09005A   23053.44688862  .00000224  00000+0  14564-3 0  9994
2 33591  99.1173  97.4559 0013616 202.1471 157.9114 14.12692804723744
GOES 14                 
1 35491U 09033A   23052.41303209 -.00000084  00000+0  00000+0 0  9992
2 35491   0.0667 143.6401 0004159 253.7136 154.2899  1.00275034 49966
GOES 15                 
1 36411U 10008A   23052.62417061  .00000040  00000+0  00000+0 0  9995
2 36411   0.0739  92.3170 0001759  79.0395  76.4326  1.00275430 47510
GPS BIIF-2              
1 37753U 11036A   23052.05119038 -.00000085  00000+0  00000+0 0  9997
2 37753  56.6993  19.0393 0122152  53.0448 132.6956  2.00566738 84963
GSAT0101 (GALILEO-PFM)  
1 37846U 11060A   23051.96413850 -.00000089  00000+0  00000+0 0  9999
2 37846  57.0725  14.5886 0003808 348.9331  11.0365  1.70475826 70450
GSAT0102 (GALILEO-FM2)  
1 37847U 11060B   23053.35049233 -.00000093  00000+0  00000+0 0  9990
2 37847  57.0737  14.5507 0005146 328.8507 208.6664  1.70475199 70609
LUCH 5A                 
1 37951U 11074B   23053.34979895 -.00000061  00000+0  00000+0 0  9991
2 37951   5.6481  93.0650 0002475 247.1095 104.6512  1.00270723 41040
METEOSAT-10 (MSG-3)     
1 38552U 12035B   23052.57980369  .00000045  00000+0  00000+0 0  9990
2 38552   1.9451  52.4644 0001605 272.6636  43.9903  1.00270378 38708
SARSAT 13 (METOP-B)     
1 38771U 12049A   23053.43574286  .00000196  00000+0  10971-3 0  9990
2 38771  98.6949 114.6478 0001257  74.7949 350.2236 14.21489656541242
GPS BIIF-3              
1 38833U 12053A   23052.27617118  .00000013  00000+0  00000+0 0  9993
2 38833  53.5180 193.1658 0135650  50.1442 310.9885  2.00564379 75134
GSAT0103 (GALILEO-FM3)  
1 38857U 12055A   23051.41655803 -.00000005  00000+0  00000+0 0  9991
2 38857  55.2143 134.8793 0002820 244.3459 115.6677  1.70473530 64330
GSAT0104 (GALILEO-FM4)  
1 38858U 12055B   23051.97288513 -.00000004  00000+0  00000+0 0  9992
2 38858  55.2130 134.8656 0002071 235.7518 124.2746  1.70473702 64348
GPS BIIF-4              
1 39166U 13023A   23051.63662321 -.00000055  00000+0  00000+0 0  9993
2 39166  55.5144 317.9510 0112052  39.3229 321.5326  2.00564900 71563
INSAT-3D                
1 39216U 13038B   23052.77983023 -.00000170  00000+0  00000+0 0  9994
2 39216   0.1169 276.4557 0001305  47.4934 190.2375  1.00272582 34939
GPS BIIF-5              
1 39533U 14008A   23052.63567411  .00000018  00000+0  00000+0 0  9998
2 39533  53.6078 198.6850 0062733 210.1230 149.4654  2.00567355 65389
LUCH 5V                 
1 39727U 14023A   23053.44625080 -.00000282  00000+0  00000+0 0  9991
2 39727   2.1032  77.4173 0002472 275.4847  54.5489  1.00272312550361
GPS BIIF-6              
1 39741U 14026A   23052.41371113 -.00000086  00000+0  00000+0 0  9993
2 39741  56.6563  18.5493 0030847 309.5935  50.1220  2.00570929 64232
GPS BIIF-7              
1 40105U 14045A   23052.50656780  .00000008  00000+0  00000+0 0  9999
2 40105  54.7524 136.8565 0022676 115.0871 245.1919  2.00563908 61774
GSAT0201 (GALILEO 5)    
1 40128U 14050A   23052.22633260 -.00000082  00000+0  00000+0 0  9990
2 40128  50.1002 322.3635 1612014 133.0153 241.6713  1.85519272 57770
GSAT0202 (GALILEO 6)    
1 40129U 14050B   23048.17448938 -.00000064  00000+0  00000+0 0  9996
2 40129  50.1252 321.5924 1609615 133.6758 240.8542  1.85519866 57927
GPS BIIF-8              
1 40294U 14068A   23052.37823068 -.00000011  00000+0  00000+0 0  9998
2 40294  56.0137  78.1174 0042846  56.2918 304.1793  2.00558529 60904
GLONASS-K 2             
1 40315U 14075A   23050.74119273  .00000060  00000+0  00000+0 0  9998
2 40315  63.6555 232.5204 0017087 203.8810 113.8911  2.13101375 63992
GPS BIIF-9              
1 40534U 15013A   23052.51209974  .00000022  00000+0  00000+0 0  9997
2 40534  53.5595 254.3681 0077640  24.3385 336.0478  2.00566561 57529
GSAT0203 (GALILEO 7)    
1 40544U 15017A   23051.15694971 -.00000087  00000+0  00000+0 0  9998
2 40544  56.8681  14.6098 0004444 282.4154  77.5140  1.70475124 48527
GSAT0204 (GALILEO 8)    
1 40545U 15017B   23051.99684418 -.00000090  00000+0  00000+0 0  9990
2 40545  56.8744  14.6005 0003798 271.5081  88.4266  1.70475317 11585
GPS BIIF-10             
1 40730U 15033A   23052.17315891 -.00000057  00000+0  00000+0 0  9994
2 40730  55.0064 316.6382 0082827  11.0097 349.2206  2.00565153 55687
METEOSAT-11 (MSG-4)     
1 40732U 15034A   23053.25188197 -.00000015  00000+0  00000+0 0  9998
2 40732   0.4707  14.4010 0000235 355.8959 232.7033  1.00268763 27866
GSAT0205 (GALILEO 9)    
1 40889U 15045A   23051.76507552  .00000041  00000+0  00000+0 0  9995
2 40889  55.4723 255.0999 0006340  33.2717 326.7958  1.70473257 46345
GSAT0206 (GALILEO 10)   
1 40890U 15045B   23053.15893531  .00000033  00000+0  00000+0 0  9998
2 40890  55.4691 255.0571 0004439  31.8111 328.2321  1.70473393 46393
GPS BIIF-11             
1 41019U 15062A   23052.22725748 -.00000010  00000+0  00000+0 0  9998
2 41019  55.9995  77.9704 0086069 221.2949 138.1127  2.00562296 53521
ELEKTRO-L 2             
1 41105U 15074A   23052.33035566 -.00000130  00000+0  00000+0 0  9994
2 41105   3.6134  85.2223 0001833 181.2176 349.0052  1.00271997 26369
GSAT0209 (GALILEO 12)   
1 41174U 15079A   23049.81183991 -.00000010  00000+0  00000+0 0  9997
2 41174  55.2295 134.6290 0003804 298.7099  61.2846  1.70474733 44079
GSAT0208 (GALILEO 11)   
1 41175U 15079B   23050.61796195 -.00000007  00000+0  00000+0 0  9990
2 41175  55.2286 134.6052 0002945 296.8845  63.1236  1.70474709 44504
GPS BIIF-12             
1 41328U 16007A   23053.31149180  .00000008  00000+0  00000+0 0  9998
2 41328  54.9629 137.5560 0068301 232.2714 127.1527  2.00558864 51594
GSAT0211 (GALILEO 14)   
1 41549U 16030A   23051.91145595  .00000040  00000+0  00000+0 0  9995
2 41549  55.6164 255.0511 0004337   7.0476 352.9849  1.70473370 41986
GSAT0210 (GALILEO 13)   
1 41550U 16030B   23048.09700168  .00000073  00000+0  00000+0 0  9991
2 41550  55.6181 255.1577 0002330 348.6641  11.3832  1.70474847 41932
INSAT-3DR               
1 41752U 16054A   23052.74077468 -.00000091  00000+0  00000+0 0  9999
2 41752   0.0199 109.9285 0013072 169.1158 212.9813  1.00271724 23676
GSAT0207 (GALILEO 15)   
1 41859U 16069A   23048.34613383 -.00000012  00000+0  00000+0 0  9999
2 41859  54.8916 134.7902 0004998 282.1688  77.7995  1.70473313 38670
GSAT0212 (GALILEO 16)   
1 41860U 16069B   23052.89297124 -.00000005  00000+0  00000+0 0  9999
2 41860  54.8897 134.6610 0002136 309.7224  50.3091  1.70473553 39007
GSAT0213 (GALILEO 17)   
1 41861U 16069C   23052.08501025 -.00000005  00000+0  00000+0 0  9999
2 41861  54.8922 134.6891 0003998 260.8710  99.1305  1.70473523 38850
GSAT0214 (GALILEO 18)   
1 41862U 16069D   23053.40533721 -.00000006  00000+0  00000+0 0  9996
2 41862  54.8908 134.6467 0003103 259.1082 100.9086  1.70473597 39001
GOES 16                 
1 41866U 16071A   23053.06230201 -.00000262  00000+0  00000+0 0  9996
2 41866   0.0858 279.1310 0000566  73.4304 106.3540  1.00271828 22966
GSAT-17                 
1 42815U 17040B   23052.85882667 -.00000272  00000+0  00000+0 0  9994
2 42815   0.0192 112.0827 0005315 172.1755 269.8914  1.00271489 20640
GSAT0215 (GALILEO 19)   
1 43055U 17079A   23050.96245155  .00000048  00000+0  00000+0 0  9998
2 43055  55.5929 254.9061 0001729   0.1390 359.8955  1.70474075 32300
GSAT0216 (GALILEO 20)   
1 43056U 17079B   23050.08134693  .00000057  00000+0  00000+0 0  9996
2 43056  55.5936 254.9302 0002745 323.5564  36.4668  1.70474151 32305
GSAT0217 (GALILEO 21)   
1 43057U 17079C   23050.30165102  .00000055  00000+0  00000+0 0  9999
2 43057  55.5918 254.9234 0003154 343.6924  16.3375  1.70474094 32294
GSAT0218 (GALILEO 22)   
1 43058U 17079D   23051.69481762  .00000042  00000+0  00000+0 0  9992
2 43058  55.5913 254.8824 0002811 311.8569  48.1470  1.70474144 32346
GOES 17                 
1 43226U 18022A   23052.43382668 -.00000105  00000+0  00000+0 0  9997
2 43226   0.0198 111.6881 0001194 262.9912 187.9010  1.00269417 18273
GSAT0221 (GALILEO 25)   
1 43564U 18060A   23052.17993397 -.00000090  00000+0  00000+0 0  9995
2 43564  57.2494  14.4608 0005286 294.4103  65.5124  1.70475388 28491
